[{"OBJECT_NAME":"STARLINK-30326","OBJECT_ID":"2023-122H","EPOCH":"2025-11-01T15:25:52.397184","MEAN_MOTION":15.02541086,"ECCENTRICITY":0.00013392,"INCLINATION":43.0022,"RA_OF_ASC_NODE":70.1057,"ARG_OF_PERICENTER":269.2388,"MEAN_ANOMALY":90.8301,"EPHEMERIS_TYPE":0,"CLASSIFICATION_TYPE":"U","NORAD_CAT_ID":57639,"ELEMENT_SET_NO":999,"REV_AT_EPOCH":12292,"BSTAR":-9.0256626e-5,"MEAN_MOTION_DOT":-1.423e-5,"MEAN_MOTION_DDOT":0},{"OBJECT_NAME":"STARLINK-30324","OBJECT_ID":"2023-122J","EPOCH":"2025-10-31T17:48:49.806432","MEAN_MOTION":15.02531306,"ECCENTRICITY":0.00015233,"INCLINATION":43.004,"RA_OF_ASC_NODE":75.3963,"ARG_OF_PERICENTER":273.5484,"MEAN_ANOMALY":86.5184,"EPHEMERIS_TYPE":0,"CLASSIFICATION_TYPE":"U","NORAD_CAT_ID":57640,"ELEMENT_SET_NO":999,"REV_AT_EPOCH":12278,"BSTAR":-0.00013049045,"MEAN_MOTION_DOT":-1.966e-5,"MEAN_MOTION_DDOT":0},{"OBJECT_NAME":"STARLINK-30312","OBJECT_ID":"2023-122K","EPOCH":"2025-11-01T01:42:40.948128","MEAN_MOTION":15.02529804,"ECCENTRICITY":0.00014329,"INCLINATION":43.0032,"RA_OF_ASC_NODE":73.5679,"ARG_OF_PERICENTER":267.8993,"MEAN_ANOMALY":92.1685,"EPHEMERIS_TYPE":0,"CLASSIFICATION_TYPE":"U","NORAD_CAT_ID":57641,"ELEMENT_SET_NO":999,"REV_AT_EPOCH":12283,"BSTAR":-3.6254592e-5,"MEAN_MOTION_DOT":-6.93e-6,"MEAN_MOTION_DDOT":0},{"OBJECT_NAME":"STARLINK-30263","OBJECT_ID":"2023-122L","EPOCH":"2025-11-01T15:54:38.158560","MEAN_MOTION":15.02533779,"ECCENTRICITY":0.00012987,"INCLINATION":43.0035,"RA_OF_ASC_NODE":70.2664,"ARG_OF_PERICENTER":274.2097,"MEAN_ANOMALY":85.8597,"EPHEMERIS_TYPE":0,"CLASSIFICATION_TYPE":"U","NORAD_CAT_ID":57642,"ELEMENT_SET_NO":999,"REV_AT_EPOCH":12292,"BSTAR":5.399549e-5,"MEAN_MOTION_DOT":5.26e-6,"MEAN_MOTION_DDOT":0},{"OBJECT_NAME":"STARLINK-30280","OBJECT_ID":"2023-122M","EPOCH":"2025-11-01T15:40:15.913344","MEAN_MOTION":15.02540732,"ECCENTRICITY":0.00013902,"INCLINATION":43.0026,"RA_OF_ASC_NODE":70.1873,"ARG_OF_PERICENTER":262.7549,"MEAN_ANOMALY":97.3135,"EPHEMERIS_TYPE":0,"CLASSIFICATION_TYPE":"U","NORAD_CAT_ID":57643,"ELEMENT_SET_NO":999,"REV_AT_EPOCH":12292,"BSTAR":0.00021332378,"MEAN_MOTION_DOT":2.679e-5,"MEAN_MOTION_DDOT":0},{"OBJECT_NAME":"STARLINK-30247","OBJECT_ID":"2023-122N","EPOCH":"2025-11-01T15:45:02.987712","MEAN_MOTION":15.02532998,"ECCENTRICITY":0.00015789,"INCLINATION":43.0024,"RA_OF_ASC_NODE":70.2149,"ARG_OF_PERICENTER":268.7314,"MEAN_ANOMALY":91.3347,"EPHEMERIS_TYPE":0,"CLASSIFICATION_TYPE":"U","NORAD_CAT_ID":57644,"ELEMENT_SET_NO":999,"REV_AT_EPOCH":12292,"BSTAR":3.2757173e-5,"MEAN_MOTION_DOT":2.39e-6,"MEAN_MOTION_DDOT":0},{"OBJECT_NAME":"STARLINK-30277","OBJECT_ID":"2023-122P","EPOCH":"2025-11-01T12:13:44.740704","MEAN_MOTION":15.27564294,"ECCENTRICITY":0.00013715,"INCLINATION":43.0032,"RA_OF_ASC_NODE":314.2946,"ARG_OF_PERICENTER":257.1363,"MEAN_ANOMALY":102.9335,"EPHEMERIS_TYPE":0,"CLASSIFICATION_TYPE":"U","NORAD_CAT_ID":57645,"ELEMENT_SET_NO":999,"REV_AT_EPOCH":12427,"BSTAR":-5.9290581e-5,"MEAN_MOTION_DOT":-1.892e-5,"MEAN_MOTION_DDOT":0},{"OBJECT_NAME":"STARLINK-30265","OBJECT_ID":"2023-122Q","EPOCH":"2025-11-01T01:37:52.699584","MEAN_MOTION":15.02534505,"ECCENTRICITY":0.00012945,"INCLINATION":43.0042,"RA_OF_ASC_NODE":73.542,"ARG_OF_PERICENTER":273.0513,"MEAN_ANOMALY":87.0181,"EPHEMERIS_TYPE":0,"CLASSIFICATION_TYPE":"U","NORAD_CAT_ID":57646,"ELEMENT_SET_NO":999,"REV_AT_EPOCH":12283,"BSTAR":4.3361498e-5,"MEAN_MOTION_DOT":3.82e-6,"MEAN_MOTION_DDOT":0},{"OBJECT_NAME":"STARLINK-30286","OBJECT_ID":"2023-122R","EPOCH":"2025-10-31T17:15:15.492384","MEAN_MOTION":15.02538015,"ECCENTRICITY":0.00013453,"INCLINATION":43.0054,"RA_OF_ASC_NODE":75.2203,"ARG_OF_PERICENTER":275.452,"MEAN_ANOMALY":84.6169,"EPHEMERIS_TYPE":0,"CLASSIFICATION_TYPE":"U","NORAD_CAT_ID":57647,"ELEMENT_SET_NO":999,"REV_AT_EPOCH":12278,"BSTAR":-2.754531e-6,"MEAN_MOTION_DOT":-2.41e-6,"MEAN_MOTION_DDOT":0},{"OBJECT_NAME":"STARLINK-30243","OBJECT_ID":"2023-122S","EPOCH":"2025-11-01T15:16:17.311872","MEAN_MOTION":15.02527645,"ECCENTRICITY":0.00017635,"INCLINATION":43.0043,"RA_OF_ASC_NODE":70.062,"ARG_OF_PERICENTER":267.2701,"MEAN_ANOMALY":92.794,"EPHEMERIS_TYPE":0,"CLASSIFICATION_TYPE":"U","NORAD_CAT_ID":57648,"ELEMENT_SET_NO":999,"REV_AT_EPOCH":12292,"BSTAR":3.2460698e-5,"MEAN_MOTION_DOT":2.35e-6,"MEAN_MOTION_DDOT":0},{"OBJECT_NAME":"STARLINK-30299","OBJECT_ID":"2023-122U","EPOCH":"2025-11-01T15:30:40.810752","MEAN_MOTION":15.02537272,"ECCENTRICITY":0.00015791,"INCLINATION":43.0031,"RA_OF_ASC_NODE":70.1416,"ARG_OF_PERICENTER":280.0794,"MEAN_ANOMALY":79.987,"EPHEMERIS_TYPE":0,"CLASSIFICATION_TYPE":"U","NORAD_CAT_ID":57650,"ELEMENT_SET_NO":999,"REV_AT_EPOCH":12292,"BSTAR":0.00013078719,"MEAN_MOTION_DOT":1.563e-5,"MEAN_MOTION_DDOT":0},{"OBJECT_NAME":"STARLINK-30294","OBJECT_ID":"2023-122V","EPOCH":"2025-11-01T00:59:57.296832","MEAN_MOTION":15.02539091,"ECCENTRICITY":0.00014864,"INCLINATION":43.0026,"RA_OF_ASC_NODE":60.6234,"ARG_OF_PERICENTER":266.0765,"MEAN_ANOMALY":93.9908,"EPHEMERIS_TYPE":0,"CLASSIFICATION_TYPE":"U","NORAD_CAT_ID":57651,"ELEMENT_SET_NO":999,"REV_AT_EPOCH":12298,"BSTAR":-0.00013085819,"MEAN_MOTION_DOT":-1.971e-5,"MEAN_MOTION_DDOT":0},{"OBJECT_NAME":"STARLINK-30276","OBJECT_ID":"2023-122W","EPOCH":"2025-11-01T15:21:04.466592","MEAN_MOTION":15.02535097,"ECCENTRICITY":0.0001806,"INCLINATION":43.0025,"RA_OF_ASC_NODE":70.0873,"ARG_OF_PERICENTER":273.959,"MEAN_ANOMALY":86.1046,"EPHEMERIS_TYPE":0,"CLASSIFICATION_TYPE":"U","NORAD_CAT_ID":57652,"ELEMENT_SET_NO":999,"REV_AT_EPOCH":12292,"BSTAR":2.37996e-6,"MEAN_MOTION_DOT":-1.72e-6,"MEAN_MOTION_DDOT":0},{"OBJECT_NAME":"STARLINK-30289","OBJECT_ID":"2023-122X","EPOCH":"2025-11-01T13:50:33.794592","MEAN_MOTION":15.02532162,"ECCENTRICITY":0.00014652,"INCLINATION":43.0025,"RA_OF_ASC_NODE":57.7092,"ARG_OF_PERICENTER":266.6461,"MEAN_ANOMALY":93.4214,"EPHEMERIS_TYPE":0,"CLASSIFICATION_TYPE":"U","NORAD_CAT_ID":57653,"ELEMENT_SET_NO":999,"REV_AT_EPOCH":12306,"BSTAR":1.6021985e-5,"MEAN_MOTION_DOT":1.3e-7,"MEAN_MOTION_DDOT":0},{"OBJECT_NAME":"STARLINK-30267","OBJECT_ID":"2023-124A","EPOCH":"2025-10-31T18:02:47.745600","MEAN_MOTION":15.30186078,"ECCENTRICITY":9.966e-5,"INCLINATION":53.1593,"RA_OF_ASC_NODE":85.9314,"ARG_OF_PERICENTER":74.7706,"MEAN_ANOMALY":285.3405,"EPHEMERIS_TYPE":0,"CLASSIFICATION_TYPE":"U","NORAD_CAT_ID":57663,"ELEMENT_SET_NO":999,"REV_AT_EPOCH":12382,"BSTAR":-2.6760099e-5,"MEAN_MOTION_DOT":-1.151e-5,"MEAN_MOTION_DDOT":0},{"OBJECT_NAME":"STARLINK-30298","OBJECT_ID":"2023-124C","EPOCH":"2025-10-31T18:05:50.444448","MEAN_MOTION":15.30185331,"ECCENTRICITY":8.203e-5,"INCLINATION":53.1606,"RA_OF_ASC_NODE":85.9617,"ARG_OF_PERICENTER":80.7025,"MEAN_ANOMALY":279.4069,"EPHEMERIS_TYPE":0,"CLASSIFICATION_TYPE":"U","NORAD_CAT_ID":57665,"ELEMENT_SET_NO":999,"REV_AT_EPOCH":12382,"BSTAR":-1.1301248e-5,"MEAN_MOTION_DOT":-6.93e-6,"MEAN_MOTION_DDOT":0},{"OBJECT_NAME":"STARLINK-30301","OBJECT_ID":"2023-124D","EPOCH":"2025-10-31T20:21:43.433568","MEAN_MOTION":15.30456619,"ECCENTRICITY":9.512e-5,"INCLINATION":53.157,"RA_OF_ASC_NODE":147.265,"ARG_OF_PERICENTER":100.6018,"MEAN_ANOMALY":259.509,"EPHEMERIS_TYPE":0,"CLASSIFICATION_TYPE":"U","NORAD_CAT_ID":57666,"ELEMENT_SET_NO":999,"REV_AT_EPOCH":12294,"BSTAR":0.00064142022,"MEAN_MOTION_DOT":0.00018837,"MEAN_MOTION_DDOT":0},{"OBJECT_NAME":"STARLINK-30275","OBJECT_ID":"2023-124E","EPOCH":"2025-11-01T02:23:24.271872","MEAN_MOTION":15.30185384,"ECCENTRICITY":5.969e-5,"INCLINATION":53.1566,"RA_OF_ASC_NODE":84.3621,"ARG_OF_PERICENTER":96.8508,"MEAN_ANOMALY":263.256,"EPHEMERIS_TYPE":0,"CLASSIFICATION_TYPE":"U","NORAD_CAT_ID":57667,"ELEMENT_SET_NO":999,"REV_AT_EPOCH":12387,"BSTAR":-1.8905357e-5,"MEAN_MOTION_DOT":-9.18e-6,"MEAN_MOTION_DDOT":0},{"OBJECT_NAME":"STARLINK-30278","OBJECT_ID":"2023-124F","EPOCH":"2025-11-01T02:15:49.095936","MEAN_MOTION":15.30188128,"ECCENTRICITY":9.063e-5,"INCLINATION":53.1596,"RA_OF_ASC_NODE":84.3552,"ARG_OF_PERICENTER":101.0695,"MEAN_ANOMALY":259.0408,"EPHEMERIS_TYPE":0,"CLASSIFICATION_TYPE":"U","NORAD_CAT_ID":57668,"ELEMENT_SET_NO":999,"REV_AT_EPOCH":12387,"BSTAR":9.995309e-6,"MEAN_MOTION_DOT":-6.3e-7,"MEAN_MOTION_DDOT":0},{"OBJECT_NAME":"STARLINK-30271","OBJECT_ID":"2023-124G","EPOCH":"2025-10-31T18:45:17.107200","MEAN_MOTION":15.30177883,"ECCENTRICITY":0.00012817,"INCLINATION":53.1602,"RA_OF_ASC_NODE":85.8169,"ARG_OF_PERICENTER":78.4555,"MEAN_ANOMALY":281.659,"EPHEMERIS_TYPE":0,"CLASSIFICATION_TYPE":"U","NORAD_CAT_ID":57669,"ELEMENT_SET_NO":999,"REV_AT_EPOCH":12382,"BSTAR":-1.3637007e-5,"MEAN_MOTION_DOT":-7.63e-6,"MEAN_MOTION_DDOT":0},{"OBJECT_NAME":"STARLINK-30322","OBJECT_ID":"2023-124H","EPOCH":"2025-10-31T18:31:37.503840","MEAN_MOTION":15.3018831,"ECCENTRICITY":7.669e-5,"INCLINATION":53.1603,"RA_OF_ASC_NODE":85.8784,"ARG_OF_PERICENTER":98.1513,"MEAN_ANOMALY":261.9575,"EPHEMERIS_TYPE":0,"CLASSIFICATION_TYPE":"U","NORAD_CAT_ID":57670,"ELEMENT_SET_NO":999,"REV_AT_EPOCH":12382,"BSTAR":-1.3096784e-5,"MEAN_MOTION_DOT":-7.46e-6,"MEAN_MOTION_DDOT":0},{"OBJECT_NAME":"STARLINK-30296","OBJECT_ID":"2023-124J","EPOCH":"2025-10-31T18:07:19.758720","MEAN_MOTION":15.30180223,"ECCENTRICITY":0.00010673,"INCLINATION":53.1578,"RA_OF_ASC_NODE":85.9054,"ARG_OF_PERICENTER":95.3159,"MEAN_ANOMALY":264.7964,"EPHEMERIS_TYPE":0,"CLASSIFICATION_TYPE":"U","NORAD_CAT_ID":57671,"ELEMENT_SET_NO":999,"REV_AT_EPOCH":12382,"BSTAR":-6.8471165e-5,"MEAN_MOTION_DOT":-2.385e-5,"MEAN_MOTION_DDOT":0},{"OBJECT_NAME":"STARLINK-30274","OBJECT_ID":"2023-124K","EPOCH":"2025-11-01T15:41:18.467808","MEAN_MOTION":15.3020345,"ECCENTRICITY":0.00010199,"INCLINATION":53.1603,"RA_OF_ASC_NODE":81.6658,"ARG_OF_PERICENTER":75.9575,"MEAN_ANOMALY":284.1539,"EPHEMERIS_TYPE":0,"CLASSIFICATION_TYPE":"U","NORAD_CAT_ID":57672,"ELEMENT_SET_NO":999,"REV_AT_EPOCH":12396,"BSTAR":-2.8773421e-5,"MEAN_MOTION_DOT":-1.211e-5,"MEAN_MOTION_DDOT":0}]
